HELIOS 2A               
1 28492U 04049A   24153.58143824  .00002848  00000+0  24942-3 0  9997
2 28492  98.3189 146.0426 0011768 245.5942 114.4050 14.97553579 41940
SPIRALE A               
1 33751U 09008C   24153.19622082  .00001149  00000+0  12688-2 0  9992
2 33751   2.0538 291.3055 5542056 173.4282 199.0458  4.59632789227660
SPIRALE B               
1 33752U 09008D   24151.89765313  .00006753  00000+0  13510-2 0  9994
2 33752   1.9897  77.9363 6784520 219.6640  62.0938  2.93090070145593
SAPPHIRE                
1 39088U 13009C   24153.52012683  .00000204  00000+0  87222-4 0  9993
2 39088  98.4110 340.7246 0010417 313.7225  46.3097 14.34696476589635
